*******************************************************************************
Ephemeris / WWW_USER Mon Mar 24 09:20:33 2025 Pasadena, USA      / Horizons    
*******************************************************************************
Target body name: 341764 (2007 VZ326)             {source: JPL#18}
Center body name: Earth (399)                     {source: DE441}
Center-site name: Mauna Kea
*******************************************************************************
Start time      : A.D. 2018-Nov-08 03:54:00.0000 UT      
Stop  time      : A.D. 2018-Nov-08 16:17:00.0000 UT      
Step-size       : 1 minutes
*******************************************************************************
Target pole/equ : undefined
Target radii    : undefined                                                    
Center geodetic : 204.5278, 19.8260847, 4.21024   {E-lon(deg),Lat(deg),Alt(km)}
Center cylindric: 204.5278, 6006.35451, 2151.0229 {E-lon(deg),Dxy(km),Dz(km)}
Center pole/equ : ITRF93                          {East-longitude positive}
Center radii    : 6378.137, 6378.137, 6356.752 km {Equator_a, b, pole_c}       
Target primary  : Sun
Vis. interferer : MOON (R_eq= 1737.400) km        {source: DE441}
Rel. light bend : Sun                             {source: DE441}
Rel. lght bnd GM: 1.3271E+11 km^3/s^2                                          
Small-body perts: Yes                             {source: SB441-N16}
Atmos refraction: NO (AIRLESS)
RA format       : HMS
Time format     : CAL 
Calendar mode   : Mixed Julian/Gregorian
RTS-only print  : NO       
EOP file        : eop.250321.p250617                                           
EOP coverage    : DATA-BASED 1962-JAN-20 TO 2025-MAR-21. PREDICTS-> 2025-JUN-16
Units conversion: 1 au= 149597870.700 km, c= 299792.458 km/s, 1 day= 86400.0 s 
Table cut-offs 1: Elevation (-90.0deg=NO ),Airmass (>38.000=NO), Daylight (YES)
Table cut-offs 2: Solar elongation (  0.0,180.0=NO ),Local Hour Angle( 0.0=NO )
Table cut-offs 3: RA/DEC angular rate (     0.0=NO )                           
*******************************************************************************
Initial IAU76/J2000 heliocentric ecliptic osculating elements (au, days, deg.):
  EPOCH=  2458738.5 ! 2019-Sep-12.00 (TDB)         Residual RMS= .13886        
   EC= .1008373990761695   QR= 2.768240023430626   TP= 2458584.3440952813      
   OM= 228.7009686323446   W=  245.4004729743531   IN= 4.232471987434818       
  Equivalent ICRF heliocentric cartesian coordinates (au, au/d):
   X=-2.388613100272569E+00  Y= 1.431394755664809E+00  Z= 3.975078424350988E-01
  VX=-6.081658482309184E-03 VY=-8.102092841560219E-03 VZ=-3.413222734767960E-03
Asteroid physical parameters (km, seconds, rotational period in hours):        
   GM= n.a.                RAD= n.a.               ROTPER= n.a.                
   H= 16.54                G= .150                 B-V= n.a.                   
                           ALBEDO= n.a.            STYP= n.a.                  
*******************************************************************************
 Date__(UT)__HR:MN     R.A._________(ICRF)_________DEC
******************************************************
$$SOE
 2018-Nov-08 10:03     06 23 49.791224 +20 20 19.39636
 2018-Nov-08 10:04     06 23 49.785556 +20 20 19.32005
 2018-Nov-08 10:05     06 23 49.779882 +20 20 19.24372
 2018-Nov-08 10:06     06 23 49.774204 +20 20 19.16737
 2018-Nov-08 10:07     06 23 49.768520 +20 20 19.09101
 2018-Nov-08 10:08     06 23 49.762831 +20 20 19.01463
 2018-Nov-08 10:09     06 23 49.757137 +20 20 18.93824
 2018-Nov-08 10:10     06 23 49.751438 +20 20 18.86183
 2018-Nov-08 10:11     06 23 49.745733 +20 20 18.78540
 2018-Nov-08 10:12     06 23 49.740024 +20 20 18.70896
 2018-Nov-08 10:13     06 23 49.734310 +20 20 18.63250
 2018-Nov-08 10:14     06 23 49.728591 +20 20 18.55603
 2018-Nov-08 10:15     06 23 49.722867 +20 20 18.47954
 2018-Nov-08 10:16     06 23 49.717137 +20 20 18.40303
 2018-Nov-08 10:17     06 23 49.711403 +20 20 18.32650
 2018-Nov-08 10:18     06 23 49.705664 +20 20 18.24996
 2018-Nov-08 10:19     06 23 49.699920 +20 20 18.17340
 2018-Nov-08 10:20     06 23 49.694171 +20 20 18.09682
 2018-Nov-08 10:21     06 23 49.688417 +20 20 18.02023
 2018-Nov-08 10:22     06 23 49.682658 +20 20 17.94362
 2018-Nov-08 10:23     06 23 49.676894 +20 20 17.86699
 2018-Nov-08 10:24     06 23 49.671126 +20 20 17.79034
 2018-Nov-08 10:25     06 23 49.665352 +20 20 17.71368
 2018-Nov-08 10:26     06 23 49.659574 +20 20 17.63700
 2018-Nov-08 10:27     06 23 49.653791 +20 20 17.56030
 2018-Nov-08 10:28     06 23 49.648003 +20 20 17.48358
 2018-Nov-08 10:29     06 23 49.642210 +20 20 17.40685
 2018-Nov-08 10:30     06 23 49.636413 +20 20 17.33010
 2018-Nov-08 10:31     06 23 49.630611 +20 20 17.25333
 2018-Nov-08 10:32     06 23 49.624804 +20 20 17.17654
 2018-Nov-08 10:33     06 23 49.618992 +20 20 17.09973
 2018-Nov-08 10:34     06 23 49.613176 +20 20 17.02291
 2018-Nov-08 10:35     06 23 49.607355 +20 20 16.94606
 2018-Nov-08 10:36     06 23 49.601529 +20 20 16.86920
 2018-Nov-08 10:37     06 23 49.595699 +20 20 16.79232
 2018-Nov-08 10:38     06 23 49.589864 +20 20 16.71542
 2018-Nov-08 10:39     06 23 49.584024 +20 20 16.63850
 2018-Nov-08 10:40     06 23 49.578180 +20 20 16.56157
 2018-Nov-08 10:41     06 23 49.572331 +20 20 16.48461
 2018-Nov-08 10:42     06 23 49.566478 +20 20 16.40764
 2018-Nov-08 10:43     06 23 49.560620 +20 20 16.33065
 2018-Nov-08 10:44     06 23 49.554758 +20 20 16.25363
 2018-Nov-08 10:45     06 23 49.548891 +20 20 16.17660
 2018-Nov-08 10:46     06 23 49.543019 +20 20 16.09955
 2018-Nov-08 10:47     06 23 49.537143 +20 20 16.02248
 2018-Nov-08 10:48     06 23 49.531263 +20 20 15.94539
 2018-Nov-08 10:49     06 23 49.525378 +20 20 15.86828
 2018-Nov-08 10:50     06 23 49.519489 +20 20 15.79115
 2018-Nov-08 10:51     06 23 49.513595 +20 20 15.71401
 2018-Nov-08 10:52     06 23 49.507697 +20 20 15.63684
 2018-Nov-08 10:53     06 23 49.501795 +20 20 15.55965
 2018-Nov-08 10:54     06 23 49.495888 +20 20 15.48244
 2018-Nov-08 10:55     06 23 49.489977 +20 20 15.40522
 2018-Nov-08 10:56     06 23 49.484062 +20 20 15.32797
 2018-Nov-08 10:57     06 23 49.478142 +20 20 15.25070
 2018-Nov-08 10:58     06 23 49.472218 +20 20 15.17341
 2018-Nov-08 10:59     06 23 49.466290 +20 20 15.09610
 2018-Nov-08 11:00     06 23 49.460357 +20 20 15.01878
 2018-Nov-08 11:01     06 23 49.454420 +20 20 14.94143
 2018-Nov-08 11:02     06 23 49.448479 +20 20 14.86406
 2018-Nov-08 11:03     06 23 49.442534 +20 20 14.78667
 2018-Nov-08 11:04     06 23 49.436585 +20 20 14.70926
 2018-Nov-08 11:05     06 23 49.430631 +20 20 14.63183
 2018-Nov-08 11:06     06 23 49.424674 +20 20 14.55437
 2018-Nov-08 11:07     06 23 49.418712 +20 20 14.47690
 2018-Nov-08 11:08     06 23 49.412746 +20 20 14.39941
 2018-Nov-08 11:09     06 23 49.406776 +20 20 14.32189
 2018-Nov-08 11:10     06 23 49.400802 +20 20 14.24436
 2018-Nov-08 11:11     06 23 49.394824 +20 20 14.16680
 2018-Nov-08 11:12     06 23 49.388842 +20 20 14.08922
 2018-Nov-08 11:13     06 23 49.382856 +20 20 14.01162
 2018-Nov-08 11:14     06 23 49.376866 +20 20 13.93400
 2018-Nov-08 11:15     06 23 49.370872 +20 20 13.85636
 2018-Nov-08 11:16     06 23 49.364875 +20 20 13.77870
 2018-Nov-08 11:17     06 23 49.358873 +20 20 13.70101
 2018-Nov-08 11:18     06 23 49.352867 +20 20 13.62331
 2018-Nov-08 11:19     06 23 49.346857 +20 20 13.54558
 2018-Nov-08 11:20     06 23 49.340844 +20 20 13.46783
 2018-Nov-08 11:21     06 23 49.334827 +20 20 13.39006
 2018-Nov-08 11:22     06 23 49.328805 +20 20 13.31226
 2018-Nov-08 11:23     06 23 49.322780 +20 20 13.23445
 2018-Nov-08 11:24     06 23 49.316752 +20 20 13.15661
 2018-Nov-08 11:25     06 23 49.310719 +20 20 13.07875
 2018-Nov-08 11:26     06 23 49.304683 +20 20 13.00087
 2018-Nov-08 11:27     06 23 49.298643 +20 20 12.92296
 2018-Nov-08 11:28     06 23 49.292599 +20 20 12.84504
 2018-Nov-08 11:29     06 23 49.286552 +20 20 12.76709
 2018-Nov-08 11:30     06 23 49.280501 +20 20 12.68912
 2018-Nov-08 11:31     06 23 49.274446 +20 20 12.61113
 2018-Nov-08 11:32     06 23 49.268388 +20 20 12.53311
 2018-Nov-08 11:33     06 23 49.262326 +20 20 12.45507
 2018-Nov-08 11:34     06 23 49.256260 +20 20 12.37701
 2018-Nov-08 11:35     06 23 49.250191 +20 20 12.29893
 2018-Nov-08 11:36     06 23 49.244118 +20 20 12.22082
 2018-Nov-08 11:37     06 23 49.238042 +20 20 12.14270
 2018-Nov-08 11:38     06 23 49.231963 +20 20 12.06454
 2018-Nov-08 11:39     06 23 49.225880 +20 20 11.98637
 2018-Nov-08 11:40     06 23 49.219793 +20 20 11.90817
 2018-Nov-08 11:41     06 23 49.213703 +20 20 11.82995
 2018-Nov-08 11:42     06 23 49.207609 +20 20 11.75171
 2018-Nov-08 11:43     06 23 49.201513 +20 20 11.67344
 2018-Nov-08 11:44     06 23 49.195412 +20 20 11.59515
 2018-Nov-08 11:45     06 23 49.189309 +20 20 11.51684
 2018-Nov-08 11:46     06 23 49.183202 +20 20 11.43850
 2018-Nov-08 11:47     06 23 49.177092 +20 20 11.36014
 2018-Nov-08 11:48     06 23 49.170978 +20 20 11.28176
 2018-Nov-08 11:49     06 23 49.164861 +20 20 11.20336
 2018-Nov-08 11:50     06 23 49.158741 +20 20 11.12493
 2018-Nov-08 11:51     06 23 49.152618 +20 20 11.04647
 2018-Nov-08 11:52     06 23 49.146491 +20 20 10.96800
 2018-Nov-08 11:53     06 23 49.140362 +20 20 10.88950
 2018-Nov-08 11:54     06 23 49.134229 +20 20 10.81097
 2018-Nov-08 11:55     06 23 49.128093 +20 20 10.73242
 2018-Nov-08 11:56     06 23 49.121954 +20 20 10.65385
 2018-Nov-08 11:57     06 23 49.115811 +20 20 10.57526
 2018-Nov-08 11:58     06 23 49.109666 +20 20 10.49664
 2018-Nov-08 11:59     06 23 49.103518 +20 20 10.41799
 2018-Nov-08 12:00     06 23 49.097366 +20 20 10.33933
 2018-Nov-08 12:01     06 23 49.091212 +20 20 10.26064
 2018-Nov-08 12:02     06 23 49.085055 +20 20 10.18192
 2018-Nov-08 12:03     06 23 49.078894 +20 20 10.10318
 2018-Nov-08 12:04     06 23 49.072731 +20 20 10.02442
 2018-Nov-08 12:05     06 23 49.066565 +20 20 09.94563
